DELTA 2 R/B             
1 25876U 99041E   19251.70036344 -.00000033  00000-0  33726-4 0  9998
2 25876  51.7692 346.4795 0530550 239.5185 115.2335 14.04349598 28893
HELIOS 1B               
1 25977U 99064A   19252.42375376  .00000027  00000-0  10483-4 0  9993
2 25977  98.2434  33.1356 0001964 131.5466 228.5915 14.82433270 64634
TERRA                   
1 25994U 99068A   19252.48790204  .00000066  00000-0  24733-4 0  9999
2 25994  98.1997 325.7751 0001331 110.7950 249.3394 14.57120292 49252
SL-16 R/B               
1 26070U 00006B   19251.91320433  .00000019  00000-0  34204-4 0  9991
2 26070  71.0023  46.9720 0017320 201.1842 158.8566 14.15454880 12652
TITAN 4B R/B            
1 26474U 00047B   19252.22499081  .00000044  00000-0  14793-4 0  9994
2 26474  67.9936 132.4862 0053541 152.5463 207.8527 14.95853602 37111
ENVISAT                 
1 27386U 02009A   19252.49491869 -.00000004  00000-0  12135-4 0  9997
2 27386  98.1473 269.2760 0001326  86.7142  85.5830 14.37956545918097
IDEFIX & ARIANE 42P R/B 
1 27422U 02021B   19251.91358157 -.00000014  00000-0  10563-4 0  9994
2 27422  98.3084 220.3415 0012159 352.5357   7.5643 14.29275408904804
AQUA                    
1 27424U 02022A   19252.13049769  .00000059  00000-0  23155-4 0  9997
2 27424  98.2068 191.7488 0002405 118.9436  65.4284 14.57115315922808
CZ-4B R/B               
1 27432U 02024C   19252.02285446 -.00000016  00000-0  16089-4 0  9992
2 27432  99.0752 244.6051 0049478 252.9031 175.9740 14.14083372893813
MIDORI II (ADEOS-II)    
1 27597U 02056A   19252.40052499  .00000014  00000-0  22920-4 0  9999
2 27597  98.4788 202.6824 0002182  89.7959 270.3472 14.27410036871571
H-2A R/B                
1 27601U 02056E   19251.60881573  .00000028  00000-0  24928-4 0  9994
2 27601  98.2680 296.3304 0072890  40.4919  78.0845 14.31906741874211
CZ-4B R/B               
1 28059U 03049C   19252.38500550 -.00000010  00000-0  94178-5 0  9991
2 28059  98.4874 160.6776 0048945 281.2724  78.2973 14.52570512841860
CZ-2C R/B               
1 28222U 04012C   19252.48303748  .00000197  00000-0  15968-4 0  9999
2 28222  97.6339 210.0689 0045766 275.6919 222.9810 15.10145453843477
SL-16 R/B               
1 28353U 04021B   19251.91923226 -.00000323  00000-0 -14448-3 0  9994
2 28353  71.0011 171.8814 0003883  15.9675 344.1569 14.14223070787196
CZ-4B R/B               
1 28415U 04035C   19251.73805654  .00000321  00000-0  25413-4 0  9993
2 28415  97.6547 290.7511 0050481 234.6635 124.9868 15.06723531821060
CZ-2C R/B               
1 28480U 04046B   19251.80866869 -.00000038  00000-0  10625-5 0  9996
2 28480  98.1223 303.0308 0141481 342.0496 133.0429 14.25705732770140
ARIANE 5 R/B            
1 28499U 04049H   19252.37575650  .00000011  00000-0  85798-5 0  9990
2 28499  98.0528 348.3662 0093577 104.8453 297.6578 14.79980530794419
CZ-2D R/B               
1 28738U 05024B   19251.91752145  .00000127  00000-0  11077-4 0  9991
2 28738  97.4104 278.4513 0013685  81.2820 278.9960 15.11861552778715
SUZAKU (ASTRO-EII)      
1 28773U 05025A   19251.81571844  .00000592  00000-0  24737-4 0  9998
2 28773  31.3832  53.9249 0004726 245.8733 114.1420 15.17164950780997
ALOS (DAICHI)           
1 28931U 06002A   19252.50267004  .00000113  00000-0  30886-4 0  9998
2 28931  97.8234 247.4667 0000572  28.0478 332.0757 14.62635221726483
H-2A R/B                
1 28932U 06002B   19251.92969024  .00000176  00000-0  22504-4 0  9992
2 28932  98.2890 221.6107 0089212 165.0808 257.8660 14.92027278739017
AKARI (ASTRO-F)         
1 28939U 06005A   19252.44336001  .00001345  00000-0  39762-4 0  9996
2 28939  98.1939 190.1818 0095420 229.5594 129.7296 15.32846440737691
RESURS-DK 1             
1 29228U 06021A   19251.93979968  .00000041  00000-0  10441-4 0  9999
2 29228  69.9359 187.1612 0005365 210.5986 149.4863 15.02462096730316
GENESIS 1               
1 29252U 06029A   19252.11501382  .00000262  00000-0  22974-4 0  9995
2 29252  64.5145 144.8804 0040338 223.3159 136.4792 15.17822862725322
CZ-4B R/B               
1 29507U 06046C   19252.21417220  .00000270  00000-0  25888-4 0  9991
2 29507  97.7771 269.8331 0048369  34.0434 326.3876 15.00531941703096
CZ-2C R/B               
1 31114U 07010B   19251.54130949 -.00000039  00000-0  67239-6 0  9997
2 31114  98.2983 117.8258 0060084  12.5064 347.7588 14.19298546642888
COSMO-SKYMED 1          
1 31598U 07023A   19252.48625636  .00000400  00000-0  56825-4 0  9991
2 31598  97.8927  74.6960 0001472  91.1863 268.9523 14.82157240663064
GENESIS 2               
1 31789U 07028A   19252.23899622  .00000076  00000-0  14325-4 0  9997
2 31789  64.5045 185.4661 0051355 276.9502  82.5781 15.16998445672351
COSMOS 2428             
1 31792U 07029A   19252.12504865 -.00000244  00000-0 -10640-3 0  9996
2 31792  70.9371 145.5532 0006224 130.0066 230.1602 14.12442756629003
SL-16 R/B               
1 31793U 07029B   19251.96290546  .00000049  00000-0  50385-4 0  9998
2 31793  70.9758 119.7689 0002459 283.7276 170.6534 14.14423864629748
KORONAS-FOTON           
1 33504U 09003A   19252.18095277  .00000583  00000-0  29017-4 0  9994
2 33504  82.4434 143.6615 0019281 170.8988 189.2598 15.15455629584732
H-2A R/B                
1 38341U 12025E   19251.92951935  .00000096  00000-0  18717-4 0  9993
2 38341  98.4616  24.3548 0056666  60.8305 299.8561 14.83921083395468
CUSAT 2 & FALCON 9 R/B  
1 39271U 13055G   19251.95342483  .00004392  00000-0  10850-3 0  9997
2 39271  80.9679 210.2624 0597167 298.2542  55.9602 14.45695463309889
SL-4 R/B                
1 39679U 14021B   19251.61194998 -.00000120  00000-0  12905-4 0  9992
2 39679  51.6170 339.7432 0173091  45.9519 315.5560 15.06144280296396
ALOS-2                  
1 39766U 14029A   19252.48213793 -.00000198  00000-0 -19599-4 0  9990
2 39766  97.9228 348.1245 0001417  87.4859 272.6519 14.79469281286000
SL-27 R/B               
1 40354U 14084B   19252.12304030  .00000536  00000-0  14533-4 0  9999
2 40354  74.7362 251.9880 0039132 225.4197 134.3820 15.39792498265076
ASTRO-H (HITOMI)        
1 41337U 16012A   19252.45991918  .00000220  00000-0  10905-4 0  9996
2 41337  31.0067 357.6159 0012352 165.0451 195.0551 14.98602900195165
SHENZHOU-11 MODULE      
1 41868U 16061G   19251.70415928  .00014499  00000-0  70373-4 0  9996
2 41868  42.7924  94.7118 0009298 278.4299 123.1263 15.82222580161096
HXMT (HUIYAN)           
1 42758U 17034A   19252.11262529  .00000254  00000-0  29701-4 0  9992
2 42758  43.0172 144.6781 0010005  44.4749 103.8047 15.08645564123221
SAOCOM 1A               
1 43641U 18076A   19252.49448299  .00000009  00000-0  76932-5 0  9999
2 43641  97.8894  77.6494 0001377  82.4329 277.7050 14.82151442 49832
